[{"OBJECT_NAME":"STARLINK-4781","OBJECT_ID":"2022-114AV","EPOCH":"2026-03-09T21:57:19.428480","MEAN_MOTION":15.08841404,"ECCENTRICITY":0.0001384,"INCLINATION":53.2173,"RA_OF_ASC_NODE":283.2726,"ARG_OF_PERICENTER":85.0547,"MEAN_ANOMALY":275.0603,"EPHEMERIS_TYPE":0,"CLASSIFICATION_TYPE":"U","NORAD_CAT_ID":53861,"ELEMENT_SET_NO":999,"REV_AT_EPOCH":19314,"BSTAR":1.2202575e-5,"MEAN_MOTION_DOT":-9.4e-7,"MEAN_MOTION_DDOT":0},{"OBJECT_NAME":"CZ-4B DEB","OBJECT_ID":"2008-053L","EPOCH":"2026-03-08T19:52:33.417984","MEAN_MOTION":15.09778257,"ECCENTRICITY":0.00077037,"INCLINATION":97.7892,"RA_OF_ASC_NODE":87.441,"ARG_OF_PERICENTER":237.5543,"MEAN_ANOMALY":122.4941,"EPHEMERIS_TYPE":0,"CLASSIFICATION_TYPE":"U","NORAD_CAT_ID":36290,"ELEMENT_SET_NO":999,"REV_AT_EPOCH":71411,"BSTAR":0.00021001,"MEAN_MOTION_DOT":3.326e-5,"MEAN_MOTION_DDOT":0}]
